{
  "type": "FeatureCollection",
  "features": [
    {
      "type": "Feature",
      "properties": {
        "norad_id": 33860,
        "name": "IRIDIUM 33 DEB",
        "group": "iridium-33-debris",
        "lat": 61.16841379285779,
        "lon": -161.411271345769,
        "alt_km": 667.0543793771003,
        "timestamp": "2025-12-17T09:00:17.532879+00:00",
        "meta_object_name": "IRIDIUM 33 DEB",
        "meta_object_id": "1997-051AD",
        "meta_epoch": "2025-12-16T20:10:17.664672",
        "meta_mean_motion": 14.6742014,
        "meta_eccentricity": 0.00069329,
        "meta_inclination": 86.3832,
        "meta_ra_of_asc_node": 25.4234,
        "meta_arg_of_pericenter": 342.8296,
        "meta_mean_anomaly": 192.7464,
        "meta_ephemeris_type": 0,
        "meta_classification_type": "U",
        "meta_norad_cat_id": 33860,
        "meta_element_set_no": 999,
        "meta_rev_at_epoch": 88782,
        "meta_bstar": 0.00087524294,
        "meta_mean_motion_dot": 4.973e-05,
        "meta_mean_motion_ddot": 0,
        "tle_line1": "1 33860U 97051AD  25350.84048223  .00004973  00000+0  87524-3 0  9999",
        "tle_line2": "2 33860  86.3832  25.4234 0006932 342.8296 192.7464 14.67420140887821"
      },
      "geometry": {
        "type": "Point",
        "coordinates": [
          -161.411271345769,
          61.16841379285779
        ]
      }
    },
    {
      "type": "Feature",
      "properties": {
        "norad_id": 33862,
        "name": "IRIDIUM 33 DEB",
        "group": "iridium-33-debris",
        "lat": -9.617202168669303,
        "lon": -143.9036383931229,
        "alt_km": 693.5174282776861,
        "timestamp": "2025-12-17T09:00:17.532889+00:00",
        "meta_object_name": "IRIDIUM 33 DEB",
        "meta_object_id": "1997-051AF",
        "meta_epoch": "2025-12-16T16:22:06.218688",
        "meta_mean_motion": 14.69541071,
        "meta_eccentricity": 0.00530982,
        "meta_inclination": 86.4093,
        "meta_ra_of_asc_node": 35.7923,
        "meta_arg_of_pericenter": 56.0255,
        "meta_mean_anomaly": 68.2506,
        "meta_ephemeris_type": 0,
        "meta_classification_type": "U",
        "meta_norad_cat_id": 33862,
        "meta_element_set_no": 999,
        "meta_rev_at_epoch": 88881,
        "meta_bstar": 0.0010087056,
        "meta_mean_motion_dot": 6.14e-05,
        "meta_mean_motion_ddot": 0,
        "tle_line1": "1 33862U 97051AF  25350.68201642  .00006140  00000+0  10087-2 0  9996",
        "tle_line2": "2 33862  86.4093  35.7923 0053098  56.0255  68.2506 14.69541071888819"
      },
      "geometry": {
        "type": "Point",
        "coordinates": [
          -143.9036383931229,
          -9.617202168669303
        ]
      }
    },
    {
      "type": "Feature",
      "properties": {
        "norad_id": 33866,
        "name": "IRIDIUM 33 DEB",
        "group": "iridium-33-debris",
        "lat": -58.46192331553358,
        "lon": -82.87327310483896,
        "alt_km": 816.5393590803333,
        "timestamp": "2025-12-17T09:00:17.532900+00:00",
        "meta_object_name": "IRIDIUM 33 DEB",
        "meta_object_id": "1997-051AK",
        "meta_epoch": "2025-12-16T19:01:21.853056",
        "meta_mean_motion": 14.25288493,
        "meta_eccentricity": 0.01147919,
        "meta_inclination": 86.3001,
        "meta_ra_of_asc_node": 91.321,
        "meta_arg_of_pericenter": 148.5346,
        "meta_mean_anomaly": 341.3253,
        "meta_ephemeris_type": 0,
        "meta_classification_type": "U",
        "meta_norad_cat_id": 33866,
        "meta_element_set_no": 999,
        "meta_rev_at_epoch": 86868,
        "meta_bstar": 0.00046900019,
        "meta_mean_motion_dot": 1.202e-05,
        "meta_mean_motion_ddot": 0,
        "tle_line1": "1 33866U 97051AK  25350.79261404  .00001202  00000+0  46900-3 0  9992",
        "tle_line2": "2 33866  86.3001  91.3210 0114791 148.5346 341.3253 14.25288493868689"
      },
      "geometry": {
        "type": "Point",
        "coordinates": [
          -82.87327310483896,
          -58.46192331553358
        ]
      }
    },
    {
      "type": "Feature",
      "properties": {
        "norad_id": 33867,
        "name": "IRIDIUM 33 DEB",
        "group": "iridium-33-debris",
        "lat": -21.045736111556973,
        "lon": 169.084172690884,
        "alt_km": 348.5892158942297,
        "timestamp": "2025-12-17T09:00:17.532911+00:00",
        "meta_object_name": "IRIDIUM 33 DEB",
        "meta_object_id": "1997-051AL",
        "meta_epoch": "2025-12-16T23:00:50.413248",
        "meta_mean_motion": 15.75812289,
        "meta_eccentricity": 0.00135861,
        "meta_inclination": 86.3641,
        "meta_ra_of_asc_node": 347.9009,
        "meta_arg_of_pericenter": 91.0972,
        "meta_mean_anomaly": 269.1858,
        "meta_ephemeris_type": 0,
        "meta_classification_type": "U",
        "meta_norad_cat_id": 33867,
        "meta_element_set_no": 999,
        "meta_rev_at_epoch": 89577,
        "meta_bstar": 0.0069135069,
        "meta_mean_motion_dot": 0.01194972,
        "meta_mean_motion_ddot": 0,
        "tle_line1": "1 33867U 97051AL  25350.95891682  .01194972  00000+0  69135-2 0  9990",
        "tle_line2": "2 33867  86.3641 347.9009 0013586  91.0972 269.1858 15.75812289895773"
      },
      "geometry": {
        "type": "Point",
        "coordinates": [
          169.084172690884,
          -21.045736111556973
        ]
      }
    },
    {
      "type": "Feature",
      "properties": {
        "norad_id": 33870,
        "name": "IRIDIUM 33 DEB",
        "group": "iridium-33-debris",
        "lat": -40.92564810399557,
        "lon": 53.122961851236596,
        "alt_km": 760.0377041843421,
        "timestamp": "2025-12-17T09:00:17.532922+00:00",
        "meta_object_name": "IRIDIUM 33 DEB",
        "meta_object_id": "1997-051AP",
        "meta_epoch": "2025-12-16T05:12:29.078208",
        "meta_mean_motion": 14.45870767,
        "meta_eccentricity": 0.00218863,
        "meta_inclination": 86.3748,
        "meta_ra_of_asc_node": 56.7702,
        "meta_arg_of_pericenter": 166.7882,
        "meta_mean_anomaly": 247.4368,
        "meta_ephemeris_type": 0,
        "meta_classification_type": "U",
        "meta_norad_cat_id": 33870,
        "meta_element_set_no": 999,
        "meta_rev_at_epoch": 88187,
        "meta_bstar": 0.00056447211,
        "meta_mean_motion_dot": 2.03e-05,
        "meta_mean_motion_ddot": 0,
        "tle_line1": "1 33870U 97051AP  25350.21700322  .00002030  00000+0  56447-3 0  9998",
        "tle_line2": "2 33870  86.3748  56.7702 0021886 166.7882 247.4368 14.45870767881874"
      },
      "geometry": {
        "type": "Point",
        "coordinates": [
          53.122961851236596,
          -40.92564810399557
        ]
      }
    },
    {
      "type": "Feature",
      "properties": {
        "norad_id": 33881,
        "name": "IRIDIUM 33 DEB",
        "group": "iridium-33-debris",
        "lat": 6.0166200430559025,
        "lon": 105.10929895768203,
        "alt_km": 745.1647185735619,
        "timestamp": "2025-12-17T09:00:17.532933+00:00",
        "meta_object_name": "IRIDIUM 33 DEB",
        "meta_object_id": "1997-051BA",
        "meta_epoch": "2025-12-16T20:22:46.379424",
        "meta_mean_motion": 14.56649424,
        "meta_eccentricity": 0.00614749,
        "meta_inclination": 86.386,
        "meta_ra_of_asc_node": 104.9563,
        "meta_arg_of_pericenter": 161.413,
        "meta_mean_anomaly": 328.223,
        "meta_ephemeris_type": 0,
        "meta_classification_type": "U",
        "meta_norad_cat_id": 33881,
        "meta_element_set_no": 999,
        "meta_rev_at_epoch": 87560,
        "meta_bstar": 0.0015152662,
        "meta_mean_motion_dot": 6.959e-05,
        "meta_mean_motion_ddot": 0,
        "tle_line1": "1 33881U 97051BA  25350.84914791  .00006959  00000+0  15153-2 0  9998",
        "tle_line2": "2 33881  86.3860 104.9563 0061474 161.4130 328.2230 14.56649424875603"
      },
      "geometry": {
        "type": "Point",
        "coordinates": [
          105.10929895768203,
          6.0166200430559025
        ]
      }
    },
    {
      "type": "Feature",
      "properties": {
        "norad_id": 33884,
        "name": "IRIDIUM 33 DEB",
        "group": "iridium-33-debris",
        "lat": -59.20563269788081,
        "lon": 1.610812584861016,
        "alt_km": 637.9188903005906,
        "timestamp": "2025-12-17T09:00:17.532943+00:00",
        "meta_object_name": "IRIDIUM 33 DEB",
        "meta_object_id": "1997-051BD",
        "meta_epoch": "2025-12-16T23:48:52.081344",
        "meta_mean_motion": 14.77513919,
        "meta_eccentricity": 0.0009261,
        "meta_inclination": 86.3695,
        "meta_ra_of_asc_node": 7.8991,
        "meta_arg_of_pericenter": 307.2606,
        "meta_mean_anomaly": 117.9093,
        "meta_ephemeris_type": 0,
        "meta_classification_type": "U",
        "meta_norad_cat_id": 33884,
        "meta_element_set_no": 999,
        "meta_rev_at_epoch": 88910,
        "meta_bstar": 0.0011874534,
        "meta_mean_motion_dot": 8.5e-05,
        "meta_mean_motion_ddot": 0,
        "tle_line1": "1 33884U 97051BD  25350.99226946  .00008500  00000+0  11875-2 0  9996",
        "tle_line2": "2 33884  86.3695   7.8991 0009261 307.2606 117.9093 14.77513919889104"
      },
      "geometry": {
        "type": "Point",
        "coordinates": [
          1.610812584861016,
          -59.20563269788081
        ]
      }
    }
  ]
}